{"type": "FeatureCollection", "features": [ {"type": "Feature", "properties": {"norad_id": 54234, "name": "NOAA 21 (JPSS-2)", "group": "weather", "lat": -0.30538929197194087, "lon": 106.38054952349549, "alt_km": 831.2246773315965, "timestamp": "2025-12-16T03:53:26.701360+00:00", "meta": {"OBJECT_NAME": "NOAA 21 (JPSS-2)", "OBJECT_ID": "2022-150A", "EPOCH": "2025-12-15T08:26:11.246784", "MEAN_MOTION": 14.19525054, "ECCENTRICITY": 0.00021162, "INCLINATION": 98.7464, "RA_OF_ASC_NODE": 285.6272, "ARG_OF_PERICENTER": 33.0442, "MEAN_ANOMALY": 327.0866, "EPHEMERIS_TYPE": 0, "CLASSIFICATION_TYPE": "U", "NORAD_CAT_ID": 54234, "ELEMENT_SET_NO": 999, "REV_AT_EPOCH": 16046, "BSTAR": 6.242747e-05, "MEAN_MOTION_DOT": 8.8e-07, "MEAN_MOTION_DDOT": 0}, "tle": {"line1": "1 54234U 22150A   25349.35151906  .00000088  00000+0  62427-4 0  9991", "line2": "2 54234  98.7464 285.6272 0002116  33.0442 327.0866 14.19525054160461"}}, "geometry": {"type": "Point", "coordinates": [106.38054952349549, -0.30538929197194087]}}, {"type": "Feature", "properties": {"norad_id": 54743, "name": "METEOSAT-12 (MTG-I1)", "group": "weather", "lat": 0.6091903641009369, "lon": 143.10962122490776, "alt_km": 35789.87475704434, "timestamp": "2025-12-16T03:53:26.701372+00:00", "meta": {"OBJECT_NAME": "METEOSAT-12 (MTG-I1)", "OBJECT_ID": "2022-170C", "EPOCH": "2025-12-15T06:32:17.576160", "MEAN_MOTION": 1.00269692, "ECCENTRICITY": 0.0001584, "INCLINATION": 0.6896, "RA_OF_ASC_NODE": 24.0298, "ARG_OF_PERICENTER": 238.8017, "MEAN_ANOMALY": 279.1443, "EPHEMERIS_TYPE": 0, "CLASSIFICATION_TYPE": "U", "NORAD_CAT_ID": 54743, "ELEMENT_SET_NO": 999, "REV_AT_EPOCH": 1113, "BSTAR": 0, "MEAN_MOTION_DOT": 1.3e-07, "MEAN_MOTION_DDOT": 0}, "tle": {"line1": "1 54743U 22170C   25349.27242565  .00000013  00000+0  00000+0 0  9993", "line2": "2 54743   0.6896  24.0298 0001584 238.8017 279.1443  1.00269692 11137"}}, "geometry": {"type": "Point", "coordinates": [143.10962122490776, 0.6091903641009369]}}, {"type": "Feature", "properties": {"norad_id": 55973, "name": "TIANMU-1 03", "group": "weather", "lat": 19.8425185623963, "lon": -24.36241172231339, "alt_km": 444.2630688600593, "timestamp": "2025-12-16T03:53:26.701383+00:00", "meta": {"OBJECT_NAME": "TIANMU-1 03", "OBJECT_ID": "2023-039A", "EPOCH": "2025-12-15T08:29:54.595968", "MEAN_MOTION": 15.41006139, "ECCENTRICITY": 0.00043155, "INCLINATION": 97.5103, "RA_OF_ASC_NODE": 152.0784, "ARG_OF_PERICENTER": 53.4661, "MEAN_ANOMALY": 306.6982, "EPHEMERIS_TYPE": 0, "CLASSIFICATION_TYPE": "U", "NORAD_CAT_ID": 55973, "ELEMENT_SET_NO": 999, "REV_AT_EPOCH": 15246, "BSTAR": 0.00027962582, "MEAN_MOTION_DOT": 0.00011451, "MEAN_MOTION_DDOT": 0}, "tle": {"line1": "1 55973U 23039A   25349.35410412  .00011451  00000+0  27963-3 0  9990", "line2": "2 55973  97.5103 152.0784 0004315  53.4661 306.6982 15.41006139152463"}}, "geometry": {"type": "Point", "coordinates": [-24.36241172231339, 19.8425185623963]}}, {"type": "Feature", "properties": {"norad_id": 55974, "name": "TIANMU-1 04", "group": "weather", "lat": -79.13243413802152, "lon": -164.54354798096534, "alt_km": 451.51158615160784, "timestamp": "2025-12-16T03:53:26.701396+00:00", "meta": {"OBJECT_NAME": "TIANMU-1 04", "OBJECT_ID": "2023-039B", "EPOCH": "2025-12-15T09:32:58.611840", "MEAN_MOTION": 15.41345895, "ECCENTRICITY": 0.00049694, "INCLINATION": 97.5034, "RA_OF_ASC_NODE": 151.3134, "ARG_OF_PERICENTER": 48.3105, "MEAN_ANOMALY": 311.8566, "EPHEMERIS_TYPE": 0, "CLASSIFICATION_TYPE": "U", "NORAD_CAT_ID": 55974, "ELEMENT_SET_NO": 999, "REV_AT_EPOCH": 15247, "BSTAR": 0.00027849704, "MEAN_MOTION_DOT": 0.00011535, "MEAN_MOTION_DDOT": 0}, "tle": {"line1": "1 55974U 23039B   25349.39790060  .00011535  00000+0  27850-3 0  9993", "line2": "2 55974  97.5034 151.3134 0004969  48.3105 311.8566 15.41345895152471"}}, "geometry": {"type": "Point", "coordinates": [-164.54354798096534, -79.13243413802152]}}, {"type": "Feature", "properties": {"norad_id": 55975, "name": "TIANMU-1 05", "group": "weather", "lat": -54.262255021693576, "lon": 163.15238251217488, "alt_km": 451.86183525642537, "timestamp": "2025-12-16T03:53:26.701476+00:00", "meta": {"OBJECT_NAME": "TIANMU-1 05", "OBJECT_ID": "2023-039C", "EPOCH": "2025-12-15T09:25:38.169696", "MEAN_MOTION": 15.40964831, "ECCENTRICITY": 0.00042933, "INCLINATION": 97.5081, "RA_OF_ASC_NODE": 151.8006, "ARG_OF_PERICENTER": 70.6843, "MEAN_ANOMALY": 289.4867, "EPHEMERIS_TYPE": 0, "CLASSIFICATION_TYPE": "U", "NORAD_CAT_ID": 55975, "ELEMENT_SET_NO": 999, "REV_AT_EPOCH": 15245, "BSTAR": 0.00027772611, "MEAN_MOTION_DOT": 0.00011357, "MEAN_MOTION_DDOT": 0}, "tle": {"line1": "1 55975U 23039C   25349.39280289  .00011357  00000+0  27773-3 0  9997", "line2": "2 55975  97.5081 151.8006 0004293  70.6843 289.4867 15.40964831152452"}}, "geometry": {"type": "Point", "coordinates": [163.15238251217488, -54.262255021693576]}}, {"type": "Feature", "properties": {"norad_id": 55976, "name": "TIANMU-1 06", "group": "weather", "lat": -81.72038171893573, "lon": -91.96232039174656, "alt_km": 452.1790745468679, "timestamp": "2025-12-16T03:53:26.701502+00:00", "meta": {"OBJECT_NAME": "TIANMU-1 06", "OBJECT_ID": "2023-039D", "EPOCH": "2025-12-15T09:35:58.797312", "MEAN_MOTION": 15.41397735, "ECCENTRICITY": 0.00046042, "INCLINATION": 97.5092, "RA_OF_ASC_NODE": 152.2753, "ARG_OF_PERICENTER": 65.7613, "MEAN_ANOMALY": 294.4114, "EPHEMERIS_TYPE": 0, "CLASSIFICATION_TYPE": "U", "NORAD_CAT_ID": 55976, "ELEMENT_SET_NO": 999, "REV_AT_EPOCH": 15247, "BSTAR": 0.00027589604, "MEAN_MOTION_DOT": 0.00011446, "MEAN_MOTION_DDOT": 0}, "tle": {"line1": "1 55976U 23039D   25349.39998608  .00011446  00000+0  27590-3 0  9995", "line2": "2 55976  97.5092 152.2753 0004604  65.7613 294.4114 15.41397735152472"}}, "geometry": {"type": "Point", "coordinates": [-91.96232039174656, -81.72038171893573]}}, {"type": "Feature", "properties": {"norad_id": 56232, "name": "FENGYUN 3G", "group": "weather", "lat": 11.192311181233428, "lon": 20.222838421795657, "alt_km": 398.13118128797123, "timestamp": "2025-12-16T03:53:26.701519+00:00", "meta": {"OBJECT_NAME": "FENGYUN 3G", "OBJECT_ID": "2023-055A", "EPOCH": "2025-12-15T08:39:44.477280", "MEAN_MOTION": 15.53816859, "ECCENTRICITY": 0.00093586, "INCLINATION": 49.9932, "RA_OF_ASC_NODE": 213.927, "ARG_OF_PERICENTER": 160.6844, "MEAN_ANOMALY": 199.448, "EPHEMERIS_TYPE": 0, "CLASSIFICATION_TYPE": "U", "NORAD_CAT_ID": 56232, "ELEMENT_SET_NO": 999, "REV_AT_EPOCH": 15143, "BSTAR": 0.00035485342, "MEAN_MOTION_DOT": 0.00022888, "MEAN_MOTION_DDOT": 0}, "tle": {"line1": "1 56232U 23055A   25349.36093145  .00022888  00000+0  35485-3 0  9992", "line2": "2 56232  49.9932 213.9270 0009358 160.6844 199.4480 15.53816859151434"}}, "geometry": {"type": "Point", "coordinates": [20.222838421795657, 11.192311181233428]}}, {"type": "Feature", "properties": {"norad_id": 57166, "name": "METEOR-M2 3", "group": "weather", "lat": 37.27709645326749, "lon": -129.71454853680345, "alt_km": 811.1988856051503, "timestamp": "2025-12-16T03:53:26.701536+00:00", "meta": {"OBJECT_NAME": "METEOR-M2 3", "OBJECT_ID": "2023-091A", "EPOCH": "2025-12-15T08:40:34.142592", "MEAN_MOTION": 14.24026362, "ECCENTRICITY": 0.00037572, "INCLINATION": 98.6375, "RA_OF_ASC_NODE": 42.855, "ARG_OF_PERICENTER": 1.3138, "MEAN_ANOMALY": 358.805, "EPHEMERIS_TYPE": 0, "CLASSIFICATION_TYPE": "U", "NORAD_CAT_ID": 57166, "ELEMENT_SET_NO": 999, "REV_AT_EPOCH": 12835, "BSTAR": 2.5881652e-05, "MEAN_MOTION_DOT": 1.6e-07, "MEAN_MOTION_DDOT": 0}, "tle": {"line1": "1 57166U 23091A   25349.36150628  .00000016  00000+0  25882-4 0  9999", "line2": "2 57166  98.6375  42.8550 0003757   1.3138 358.8050 14.24026362128355"}}, "geometry": {"type": "Point", "coordinates": [-129.71454853680345, 37.27709645326749]}}, {"type": "Feature", "properties": {"norad_id": 57399, "name": "TIANMU-1 07", "group": "weather", "lat": 10.539111180623935, "lon": -138.69889120715098, "alt_km": 483.5217361904488, "timestamp": "2025-12-16T03:53:26.701553+00:00", "meta": {"OBJECT_NAME": "TIANMU-1 07", "OBJECT_ID": "2023-101A", "EPOCH": "2025-12-15T08:17:38.626944", "MEAN_MOTION": 15.28112579, "ECCENTRICITY": 0.00055099, "INCLINATION": 97.288, "RA_OF_ASC_NODE": 39.1381, "ARG_OF_PERICENTER": 75.0485, "MEAN_ANOMALY": 285.1365, "EPHEMERIS_TYPE": 0, "CLASSIFICATION_TYPE": "U", "NORAD_CAT_ID": 57399, "ELEMENT_SET_NO": 999, "REV_AT_EPOCH": 13355, "BSTAR": 0.00020861477, "MEAN_MOTION_DOT": 5.647e-05, "MEAN_MOTION_DDOT": 0}, "tle": {"line1": "1 57399U 23101A   25349.34558596  .00005647  00000+0  20861-3 0  9999", "line2": "2 57399  97.2880  39.1381 0005509  75.0485 285.1365 15.28112579133550"}}, "geometry": {"type": "Point", "coordinates": [-138.69889120715098, 10.539111180623935]}}, {"type": "Feature", "properties": {"norad_id": 57400, "name": "TIANMU-1 08", "group": "weather", "lat": -9.411284661826429, "lon": 40.949393447192634, "alt_km": 485.1037741465425, "timestamp": "2025-12-16T03:53:26.701569+00:00", "meta": {"OBJECT_NAME": "TIANMU-1 08", "OBJECT_ID": "2023-101B", "EPOCH": "2025-12-15T09:04:23.038752", "MEAN_MOTION": 15.28096088, "ECCENTRICITY": 0.00074595, "INCLINATION": 97.2869, "RA_OF_ASC_NODE": 38.9673, "ARG_OF_PERICENTER": 76.5418, "MEAN_ANOMALY": 283.6653, "EPHEMERIS_TYPE": 0, "CLASSIFICATION_TYPE": "U", "NORAD_CAT_ID": 57400, "ELEMENT_SET_NO": 999, "REV_AT_EPOCH": 13355, "BSTAR": 0.00020436108, "MEAN_MOTION_DOT": 5.529e-05, "MEAN_MOTION_DDOT": 0}, "tle": {"line1": "1 57400U 23101B   25349.37804443  .00005529  00000+0  20436-3 0  9997", "line2": "2 57400  97.2869  38.9673 0007459  76.5418 283.6653 15.28096088133558"}}, "geometry": {"type": "Point", "coordinates": [40.949393447192634, -9.411284661826429]}}]}